#aV2020 11 16  0  0  0.00000000     288 DD+AD WGS84 FIT  NGA
## 2132  86400.00000000   300.00000000 59169 0.0000000000000
+   31     1  2  3  4  5  6  7  8  9 10 11 12 13 15 16 17 18
+         19 20 21 22 23 24 25 26 27 28 29 30 31 32  0  0  0
+          0  0  0  0  0  0  0  0  0  0  0  0  0  0  0  0  0
+          0  0  0  0  0  0  0  0  0  0  0  0  0  0  0  0  0
+          0  0  0  0  0  0  0  0  0  0  0  0  0  0  0  0  0
++         2  2  2  2  2  2  2  2  2  2  2  2  2  2  2  2  2
++         2  2  2  2  2  2  2  2  2  2  2  2  2  2  0  0  0
++         0  0  0  0  0  0  0  0  0  0  0  0  0  0  0  0  0
++         0  0  0  0  0  0  0  0  0  0  0  0  0  0  0  0  0
++         0  0  0  0  0  0  0  0  0  0  0  0  0  0  0  0  0
%c cc cc ccc ccc cccc cccc cccc cccc ccccc ccccc ccccc ccccc
%c cc cc ccc ccc cccc cccc cccc cccc ccccc ccccc ccccc ccccc
%f  0.0000000  0.000000000  0.00000000000  0.000000000000000
%f  0.0000000  0.000000000  0.00000000000  0.000000000000000
%i    0    0    0    0      0      0      0      0         0
%i    0    0    0    0      0      0      0      0         0
/*      NGA, ST. LOUIS,MO.                                  
/*   EPHEMERIS COMPUTED FROM 2 DAYS OF DATA                 
/*   EPOCHA v5 SMOOTHER                                     
/*   G1762 IERS2010 SATAF SATAPC                            
*  2020 11 16  7 35  0.00000000
P  1  17748.383967   7330.342644  18257.203168    806.982902                    
V  1  10162.836156  21210.520323 -17840.997580     -0.038838                    
P  2 -14480.195388 -22255.893548   -179.515643   -543.129046                    
V  2   1815.296706  -2364.024941  31765.507994     -0.047009                    
P  3  18110.822118  -5035.237451  18643.000014     -5.178463                    
V  3 -11173.690219  21131.423400  16583.766195     -0.100667                    
P  4  26554.199053    818.725980   -949.574183   -155.782288                    
V  4   1048.771104   2876.946215  31674.907964     -0.035907                    
P  5  -8114.586333 -15088.462080 -20405.011864    -26.008538                    
V  5  13531.744801 -21802.045942  11002.606082     -0.009459                    
P  6  -3491.057412 -23346.060703  12194.424485     -1.203183                    
V  6   8953.310232  12624.008175  26895.165132     -0.015149                    
P  7  11805.080303  -9945.187868 -21244.867458   -415.301121                    
V  7  13680.695951  24244.582651  -4168.809765     -0.076545                    
P  8  24544.274694   6061.488556  -8577.147621    -55.278275                    
V  8 -10833.734644   2081.712358 -29216.579744     -0.013141                    
P  9  22193.478991  -8398.227792 -12013.005012   -290.149407                    
V  9  15149.496388   2634.697386  26266.297094     -0.046688                    
P 10 -10945.766892  23693.713232   4181.916753   -505.809391                    
V 10  -5092.568560   3035.558023 -31470.924636     -0.091276                    
P 11  23440.855777  10208.164988   6009.053959   -107.320423                    
V 11   4414.811484   8385.250256 -29603.967451      0.105423                    
P 12 -17325.972472   1261.706830  19809.053212     39.684990                    
V 12  13949.441655 -21587.889822  13563.439553     -0.051573                    
P 13 -17783.871600 -13135.349846 -14937.841434     65.395739                    
V 13  18726.897119   1059.638076 -23324.451065      0.038461                    
P 15 -25342.623678  -3805.629257  -8020.676423   -189.676200                    
V 15   9350.820592  -4030.092934 -28538.529815      0.025928                    
P 16   6801.435659  14808.915028 -21095.472821   -237.153749                    
V 16 -16347.447581  20673.897278   9785.912747     -0.053091                    
P 17   5765.897737 -14278.152332  22069.437378    354.558976                    
V 17  26814.908110   2531.450800  -5504.279783      0.050862                    
P 18 -10429.922779  11904.127385 -21330.041399    321.939406                    
V 18 -12972.233504 -23750.916630  -6968.599150      0.047620                    
P 19  -1728.141411 -14835.988872  21684.373140    -77.666191                    
V 19  27959.303181   3293.233491   4350.157182      0.050271                    
P 20 -15367.727246  19763.634231  -8537.420958    525.999032                    
V 20   1078.905870 -11361.857505 -28742.254013     -0.001586                    
P 21  19478.572932  14133.139454  12386.727265     68.710896                    
V 21   6112.623012  13239.850945 -25974.150242      0.038079                    
P 22  15796.277900   3556.569706  21234.569681   -729.254979                    
V 22 -11159.724778  24197.605222   4443.372964      0.053788                    
P 23 -16405.052418  19946.823130  -6165.871189    100.821917                    
V 23   1546.413449  -8101.490681 -30498.598010      0.044935                    
P 24 -19490.208615  -9965.475018  15082.274436      6.369695                    
V 24  -8448.735497 -17687.514383 -21889.666840     -0.005370                    
P 25 -18543.705195  14084.426310  12280.661272     23.015300                    
V 25   6191.841069 -15045.597257  26357.990224      0.065860                    
P 26  -1643.015457  22808.641560 -13332.247288    312.522222                    
V 26 -10698.261811  13512.572678  24746.365028      0.060450                    
P 27  15779.087665  12343.920565 -17759.442514    -14.679946                    
V 27 -22106.282925    637.008259 -19021.575877     -0.083329                    
P 28  11668.188154 -23189.406071   6605.972305    654.915444                    
V 28   6147.946154  -4874.145411 -30505.016066     -0.046851                    
P 29 -23901.567797   4827.843336 -10623.690468   -237.441296                    
V 29 -13161.478366  -3004.164163  28297.227391     -0.076883                    
P 30   4947.409818 -18981.808023 -17763.396543   -336.414047                    
V 30  12221.677620  19363.719403 -17456.759278     -0.065783                    
P 31   4554.973383  23978.771539   9817.778683    -81.749967                    
V 31  -8475.812757  -9940.475316  28491.629192     -0.024128                    
P 32  -5150.879810  14992.252438  21374.997427      0.863461                    
V 32 -26967.483423  -1036.608337  -5951.209823      0.032539                    
EOF
